SITRO-AIS-62            
1 67296U 25313BA  26025.95511241  .00018658  00000+0  81800-3 0  9994
2 67296  97.4097 102.9936 0010192 132.6412 227.5685 15.21988555  4323
SITRO-AIS-61            
1 67297U 25313BB  26025.95402084  .00018737  00000+0  82009-3 0  9999
2 67297  97.4100 102.9952 0009885 134.4352 225.7695 15.22047659  4320
TIANHUI 7               
1 67300U 25314A   26020.93104818  .00004960  00000+0  19817-3 0  9992
2 67300  97.4187  97.9671 0001561 100.1824 259.9591 15.25587940  3337
CZ-4B R/B               
1 67301U 25314B   26025.68727439  .00154801  93222-5  69019-3 0  9993
2 67301  97.3701 104.2870 0131475 278.4869  80.1513 15.72275277  4123
SHIJIAN-29A (SJ-29A)    
1 67302U 25315A   26025.86150399 -.00000054  00000+0  00000+0 0  9998
2 67302   3.0362  98.8808 0001388 295.4300 114.0034  1.00270833   195
CZ-7A R/B               
1 67303U 25315B   26025.63278455  .00043892 -20310-6  14063-2 0  9995
2 67303  19.6009  89.6676 7176997 198.8880 106.5590  2.45563752   630
CSG-3                   
1 67304U 26001A   26025.95564176  .00000781  00000+0  10368-3 0  9993
2 67304  97.8453 211.6389 0001618  83.5131 276.6266 14.82509309  3396
STARLINK-36490          
1 67305U 26002A   26025.91668981 -.02018055  00000+0 -22632-1 0  9992
2 67305  42.9995 209.4391 0001475 282.2421 210.9515 15.65117414  4605
STARLINK-36488          
1 67306U 26002B   26025.91668981 -.02006615  00000+0 -22492-1 0  9996
2 67306  42.9999 209.4349 0001462 281.4099 213.7029 15.65110024  4545
STARLINK-36481          
1 67307U 26002C   26025.91668981 -.02020035  00000+0 -22657-1 0  9992
2 67307  42.9993 209.4247 0001455 282.3694 216.5768 15.65117782  4549
STARLINK-36449          
1 67308U 26002D   26025.91668981 -.02018056  00000+0 -22633-1 0  9997
2 67308  42.9994 209.4200 0001403 281.2385 219.6252 15.65116591  4604
STARLINK-36482          
1 67309U 26002E   26025.91668981 -.02017473  00000+0 -22627-1 0  9993
2 67309  42.9993 209.3969 0001242 284.8286 225.6209 15.65116464  4546
