CCSDS_OMM_VERS = 2.0
CREATION_DATE  = 
ORIGINATOR     = 

OBJECT_NAME    = SITRO-AIS-62
OBJECT_ID      = 2025-313BA
CENTER_NAME    = EARTH
REF_FRAME      = TEME
TIME_SYSTEM    = UTC
MEAN_ELEMENT_THEORY = SGP/SGP4

EPOCH          = 2026-01-25T22:55:21.712224
MEAN_MOTION    = 15.21988555
ECCENTRICITY   = .00101928
INCLINATION    = 97.4097
RA_OF_ASC_NODE = 102.9936
ARG_OF_PERICENTER = 132.6412
MEAN_ANOMALY   = 227.5685

EPHEMERIS_TYPE = 0
CLASSIFICATION_TYPE = U
NORAD_CAT_ID   = 67296
ELEMENT_SET_NO = 999
REV_AT_EPOCH   = 432
BSTAR          = .81799862E-3
MEAN_MOTION_DOT = .18658E-3
MEAN_MOTION_DDOT = 0

CCSDS_OMM_VERS = 2.0
CREATION_DATE  = 
ORIGINATOR     = 

OBJECT_NAME    = SITRO-AIS-61
OBJECT_ID      = 2025-313BB
CENTER_NAME    = EARTH
REF_FRAME      = TEME
TIME_SYSTEM    = UTC
MEAN_ELEMENT_THEORY = SGP/SGP4

EPOCH          = 2026-01-25T22:53:47.400576
MEAN_MOTION    = 15.22047659
ECCENTRICITY   = .00098851
INCLINATION    = 97.4100
RA_OF_ASC_NODE = 102.9952
ARG_OF_PERICENTER = 134.4352
MEAN_ANOMALY   = 225.7695

EPHEMERIS_TYPE = 0
CLASSIFICATION_TYPE = U
NORAD_CAT_ID   = 67297
ELEMENT_SET_NO = 999
REV_AT_EPOCH   = 432
BSTAR          = .820087E-3
MEAN_MOTION_DOT = .18737E-3
MEAN_MOTION_DDOT = 0

CCSDS_OMM_VERS = 2.0
CREATION_DATE  = 
ORIGINATOR     = 

OBJECT_NAME    = TIANHUI 7
OBJECT_ID      = 2025-314A
CENTER_NAME    = EARTH
REF_FRAME      = TEME
TIME_SYSTEM    = UTC
MEAN_ELEMENT_THEORY = SGP/SGP4

EPOCH          = 2026-01-20T22:20:42.562752
MEAN_MOTION    = 15.25587940
ECCENTRICITY   = .00015619
INCLINATION    = 97.4187
RA_OF_ASC_NODE = 97.9671
ARG_OF_PERICENTER = 100.1824
MEAN_ANOMALY   = 259.9591

EPHEMERIS_TYPE = 0
CLASSIFICATION_TYPE = U
NORAD_CAT_ID   = 67300
ELEMENT_SET_NO = 999
REV_AT_EPOCH   = 333
BSTAR          = .19816833E-3
MEAN_MOTION_DOT = .496E-4
MEAN_MOTION_DDOT = 0

CCSDS_OMM_VERS = 2.0
CREATION_DATE  = 
ORIGINATOR     = 

OBJECT_NAME    = CZ-4B R/B
OBJECT_ID      = 2025-314B
CENTER_NAME    = EARTH
REF_FRAME      = TEME
TIME_SYSTEM    = UTC
MEAN_ELEMENT_THEORY = SGP/SGP4

EPOCH          = 2026-01-25T16:29:40.507296
MEAN_MOTION    = 15.72275277
ECCENTRICITY   = .01314753
INCLINATION    = 97.3701
RA_OF_ASC_NODE = 104.2870
ARG_OF_PERICENTER = 278.4869
MEAN_ANOMALY   = 80.1513

EPHEMERIS_TYPE = 0
CLASSIFICATION_TYPE = U
NORAD_CAT_ID   = 67301
ELEMENT_SET_NO = 999
REV_AT_EPOCH   = 412
BSTAR          = .69018643E-3
MEAN_MOTION_DOT = .154801E-2
MEAN_MOTION_DDOT = .9322194E-5

CCSDS_OMM_VERS = 2.0
CREATION_DATE  = 
ORIGINATOR     = 

OBJECT_NAME    = SHIJIAN-29A (SJ-29A)
OBJECT_ID      = 2025-315A
CENTER_NAME    = EARTH
REF_FRAME      = TEME
TIME_SYSTEM    = UTC
MEAN_ELEMENT_THEORY = SGP/SGP4

EPOCH          = 2026-01-25T20:40:33.944736
MEAN_MOTION    = 1.00270833
ECCENTRICITY   = .00013886
INCLINATION    = 3.0362
RA_OF_ASC_NODE = 98.8808
ARG_OF_PERICENTER = 295.4300
MEAN_ANOMALY   = 114.0034

EPHEMERIS_TYPE = 0
CLASSIFICATION_TYPE = U
NORAD_CAT_ID   = 67302
ELEMENT_SET_NO = 999
REV_AT_EPOCH   = 19
BSTAR          = 0
MEAN_MOTION_DOT = -.54E-6
MEAN_MOTION_DDOT = 0

CCSDS_OMM_VERS = 2.0
CREATION_DATE  = 
ORIGINATOR     = 

OBJECT_NAME    = CZ-7A R/B
OBJECT_ID      = 2025-315B
CENTER_NAME    = EARTH
REF_FRAME      = TEME
TIME_SYSTEM    = UTC
MEAN_ELEMENT_THEORY = SGP/SGP4

EPOCH          = 2026-01-25T15:11:12.585120
MEAN_MOTION    = 2.45563752
ECCENTRICITY   = .71769971
INCLINATION    = 19.6009
RA_OF_ASC_NODE = 89.6676
ARG_OF_PERICENTER = 198.8880
MEAN_ANOMALY   = 106.5590

EPHEMERIS_TYPE = 0
CLASSIFICATION_TYPE = U
NORAD_CAT_ID   = 67303
ELEMENT_SET_NO = 999
REV_AT_EPOCH   = 63
BSTAR          = .1406265E-2
MEAN_MOTION_DOT = .43892E-3
MEAN_MOTION_DDOT = -.203101E-6

CCSDS_OMM_VERS = 2.0
CREATION_DATE  = 
ORIGINATOR     = 

OBJECT_NAME    = CSG-3
OBJECT_ID      = 2026-001A
CENTER_NAME    = EARTH
REF_FRAME      = TEME
TIME_SYSTEM    = UTC
MEAN_ELEMENT_THEORY = SGP/SGP4

EPOCH          = 2026-01-25T22:56:07.448064
MEAN_MOTION    = 14.82509309
ECCENTRICITY   = .00016186
INCLINATION    = 97.8453
RA_OF_ASC_NODE = 211.6389
ARG_OF_PERICENTER = 83.5131
MEAN_ANOMALY   = 276.6266

EPHEMERIS_TYPE = 0
CLASSIFICATION_TYPE = U
NORAD_CAT_ID   = 67304
ELEMENT_SET_NO = 999
REV_AT_EPOCH   = 339
BSTAR          = .10368073E-3
MEAN_MOTION_DOT = .781E-5
MEAN_MOTION_DDOT = 0

CCSDS_OMM_VERS = 2.0
CREATION_DATE  = 
ORIGINATOR     = 

OBJECT_NAME    = STARLINK-36490
OBJECT_ID      = 2026-002A
CENTER_NAME    = EARTH
REF_FRAME      = TEME
TIME_SYSTEM    = UTC
MEAN_ELEMENT_THEORY = SGP/SGP4

EPOCH          = 2026-01-25T22:00:01.999584
MEAN_MOTION    = 15.65117414
ECCENTRICITY   = .00014755
INCLINATION    = 42.9995
RA_OF_ASC_NODE = 209.4391
ARG_OF_PERICENTER = 282.2421
MEAN_ANOMALY   = 210.9515

EPHEMERIS_TYPE = 0
CLASSIFICATION_TYPE = U
NORAD_CAT_ID   = 67305
ELEMENT_SET_NO = 999
REV_AT_EPOCH   = 460
BSTAR          = -.22631502E-1
MEAN_MOTION_DOT = -.2018055E-1
MEAN_MOTION_DDOT = 0

CCSDS_OMM_VERS = 2.0
CREATION_DATE  = 
ORIGINATOR     = 

OBJECT_NAME    = STARLINK-36488
OBJECT_ID      = 2026-002B
CENTER_NAME    = EARTH
REF_FRAME      = TEME
TIME_SYSTEM    = UTC
MEAN_ELEMENT_THEORY = SGP/SGP4

EPOCH          = 2026-01-25T22:00:01.999584
MEAN_MOTION    = 15.65110024
ECCENTRICITY   = .00014621
INCLINATION    = 42.9999
RA_OF_ASC_NODE = 209.4349
ARG_OF_PERICENTER = 281.4099
MEAN_ANOMALY   = 213.7029

EPHEMERIS_TYPE = 0
CLASSIFICATION_TYPE = U
NORAD_CAT_ID   = 67306
ELEMENT_SET_NO = 999
REV_AT_EPOCH   = 454
BSTAR          = -.22492142E-1
MEAN_MOTION_DOT = -.2006615E-1
MEAN_MOTION_DDOT = 0

CCSDS_OMM_VERS = 2.0
CREATION_DATE  = 
ORIGINATOR     = 

OBJECT_NAME    = STARLINK-36481
OBJECT_ID      = 2026-002C
CENTER_NAME    = EARTH
REF_FRAME      = TEME
TIME_SYSTEM    = UTC
MEAN_ELEMENT_THEORY = SGP/SGP4

EPOCH          = 2026-01-25T22:00:01.999584
MEAN_MOTION    = 15.65117782
ECCENTRICITY   = .00014552
INCLINATION    = 42.9993
RA_OF_ASC_NODE = 209.4247
ARG_OF_PERICENTER = 282.3694
MEAN_ANOMALY   = 216.5768

EPHEMERIS_TYPE = 0
CLASSIFICATION_TYPE = U
NORAD_CAT_ID   = 67307
ELEMENT_SET_NO = 999
REV_AT_EPOCH   = 454
BSTAR          = -.22656699E-1
MEAN_MOTION_DOT = -.2020035E-1
MEAN_MOTION_DDOT = 0

CCSDS_OMM_VERS = 2.0
CREATION_DATE  = 
ORIGINATOR     = 

OBJECT_NAME    = STARLINK-36449
OBJECT_ID      = 2026-002D
CENTER_NAME    = EARTH
REF_FRAME      = TEME
TIME_SYSTEM    = UTC
MEAN_ELEMENT_THEORY = SGP/SGP4

EPOCH          = 2026-01-25T22:00:01.999584
MEAN_MOTION    = 15.65116591
ECCENTRICITY   = .0001403
INCLINATION    = 42.9994
RA_OF_ASC_NODE = 209.4200
ARG_OF_PERICENTER = 281.2385
MEAN_ANOMALY   = 219.6252

EPHEMERIS_TYPE = 0
CLASSIFICATION_TYPE = U
NORAD_CAT_ID   = 67308
ELEMENT_SET_NO = 999
REV_AT_EPOCH   = 460
BSTAR          = -.22632998E-1
MEAN_MOTION_DOT = -.2018056E-1
MEAN_MOTION_DDOT = 0

CCSDS_OMM_VERS = 2.0
CREATION_DATE  = 
ORIGINATOR     = 

OBJECT_NAME    = STARLINK-36482
OBJECT_ID      = 2026-002E
CENTER_NAME    = EARTH
REF_FRAME      = TEME
TIME_SYSTEM    = UTC
MEAN_ELEMENT_THEORY = SGP/SGP4

EPOCH          = 2026-01-25T22:00:01.999584
MEAN_MOTION    = 15.65116464
ECCENTRICITY   = .00012423
INCLINATION    = 42.9993
RA_OF_ASC_NODE = 209.3969
ARG_OF_PERICENTER = 284.8286
MEAN_ANOMALY   = 225.6209

EPHEMERIS_TYPE = 0
CLASSIFICATION_TYPE = U
NORAD_CAT_ID   = 67309
ELEMENT_SET_NO = 999
REV_AT_EPOCH   = 454
BSTAR          = -.22627249E-1
MEAN_MOTION_DOT = -.2017473E-1
MEAN_MOTION_DDOT = 0

